NORAD_CAT_ID,OBJECT_NAME,OBJECT_TYPE,EPOCH,MEAN_MOTION,ECCENTRICITY,INCLINATION,RA_OF_ASC_NODE,ARG_OF_PERICENTER,MEAN_ANOMALY,BSTAR,MEAN_MOTION_DOT,MEAN_MOTION_DDOT,TLE_LINE0,TLE_LINE1,TLE_LINE2,SEMIMAJOR_AXIS,PERIOD,APOGEE,PERIGEE,DECAYED
50808.0,STARLINK-3355,PAYLOAD,2022-02-18 20:00:01,15.73249243,0.0001649,53.217,346.5783,22.4256,173.7534,-0.00029834,-0.0004237,0.0,0 STARLINK-3355,1 50808U 22001F   22049.83334491 -.00042370  00000-0 -29834-3 0  9995,2 50808  53.2170 346.5783 0001649  22.4256 173.7534 15.73249243  8040,6727.755,91.53,350.72900000000016,348.51,0.0
50808.0,STARLINK-3355,PAYLOAD,2022-02-19 12:00:02,15.73224907,0.0002004,53.2164,343.2811,25.7537,348.417,0.00010388,0.00013998,0.0,0 STARLINK-3355,1 50808U 22001F   22050.50002315  .00013998  00000-0  10388-3 0  9994,2 50808  53.2164 343.2811 0002004  25.7537 348.4170 15.73224907  8152,6727.824000000001,91.532,351.037,348.341,0.0
50808.0,STARLINK-3355,PAYLOAD,2022-02-19 14:00:01,15.73220473,0.0001939,53.2165,342.8682,26.841,99.5066,0.00022204,0.00030683,0.0,0 STARLINK-3355,1 50808U 22001F   22050.58334491  .00030683  00000-0  22204-3 0  9995,2 50808  53.2165 342.8682 0001939  26.8410  99.5066 15.73220473  3687,6727.837,91.532,351.006,348.397,0.0
50808.0,STARLINK-3355,PAYLOAD,2022-02-19 20:00:01,15.73262195,0.0001976,53.2168,341.6307,32.6497,70.418,-0.00039924,-0.00056431,0.0,0 STARLINK-3355,1 50808U 22001F   22050.83334491 -.00056431  00000-0 -39924-3 0  9991,2 50808  53.2168 341.6307 0001976  32.6497  70.4180 15.73262195  3707,6727.718000000003,91.53,350.912,348.25300000000016,0.0
50808.0,STARLINK-3355,PAYLOAD,2022-02-20 06:00:00,15.73186768,0.0002258,53.2165,339.5711,28.5918,275.6998,-0.00010059,-0.00014707,0.0,0 STARLINK-3355,1 50808U 22001F   22051.25001157 -.00014707  00000-0 -10059-3 0  9996,2 50808  53.2165 339.5711 0002258  28.5918 275.6998 15.73186768  8268,6727.933000000001,91.534,351.31699999999995,348.279,0.0
50808.0,STARLINK-3355,PAYLOAD,2022-02-20 14:00:01,15.7313187,0.0002076,53.2164,337.9196,35.158,358.0482,0.00035766,0.00049728,0.0,0 STARLINK-3355,1 50808U 22001F   22051.58334491  .00049728  00000-0  35766-3 0  9993,2 50808  53.2164 337.9196 0002076  35.1580 358.0482 15.73131870  3660,6728.089,91.537,351.351,348.55800000000005,0.0
50808.0,STARLINK-3355,PAYLOAD,2022-02-20 22:00:00,15.73182867,0.0002124,53.2162,336.271,36.1791,85.8839,6.5862e-05,8.625e-05,0.0,0 STARLINK-3355,1 50808U 22001F   22051.91667824  .00008625  00000-0  65862-4 0  9991,2 50808  53.2162 336.2710 0002124  36.1791  85.8839 15.73182867  3664,6727.944,91.534,351.23800000000006,348.38,0.0
50808.0,STARLINK-3355,PAYLOAD,2022-02-21 14:00:01,15.73136296,0.0001952,53.2158,332.9713,31.6445,268.2338,0.00046207,0.00064553,0.0,0 STARLINK-3355,1 50808U 22001F   22052.58334491  .00064553  00000-0  46207-3 0  9999,2 50808  53.2158 332.9713 0001952  31.6445 268.2338 15.73136296  8479,6728.0769999999975,91.537,351.255,348.62800000000016,0.0
50808.0,STARLINK-3355,PAYLOAD,2022-02-21 22:00:00,15.73207194,0.000203,53.2161,331.3225,33.3744,355.38,4.6413e-05,5.899e-05,0.0,0 STARLINK-3355,1 50808U 22001F   22052.91667824  .00005899  00000-0  46413-4 0  9993,2 50808  53.2161 331.3225 0002030  33.3744 355.3800 15.73207194  3667,6727.875,91.533,351.105,348.374,0.0
50808.0,STARLINK-3355,PAYLOAD,2022-02-22 12:00:02,15.73254544,0.0001926,53.2158,328.4353,28.3326,66.1411,-0.00049744,-0.00070023,0.0,0 STARLINK-3355,1 50808U 22001F   22053.50002315 -.00070023  00000-0 -49744-3 0  9999,2 50808  53.2158 328.4353 0001926  28.3326  66.1411 15.73254544  8622,6727.74,91.53,350.9,348.309,0.0
50808.0,STARLINK-3355,PAYLOAD,2022-02-22 14:00:01,15.73211661,0.0001878,53.2157,328.0225,28.132,178.5332,1.977e-05,2.156e-05,0.0,0 STARLINK-3355,1 50808U 22001F   22053.58334491  .00002156  00000-0  19770-4 0  9997,2 50808  53.2157 328.0225 0001878  28.1320 178.5332 15.73211661  3687,6727.861999999999,91.533,350.99,348.463,0.0
50808.0,STARLINK-3355,PAYLOAD,2022-02-22 20:00:01,15.73221971,0.0001816,53.2158,326.7857,28.2195,155.1498,0.00019506,0.00026869,0.0,0 STARLINK-3355,1 50808U 22001F   22053.83334491  .00026869  00000-0  19506-3 0  9998,2 50808  53.2158 326.7857 0001816  28.2195 155.1498 15.73221971  8670,6727.833000000001,91.532,350.9190000000001,348.476,0.0
50808.0,STARLINK-3355,PAYLOAD,2022-02-22 22:00:00,15.73245488,0.0001882,53.2156,326.3739,25.467,270.1369,-0.00015088,-0.00021784,0.0,0 STARLINK-3355,1 50808U 22001F   22053.91667824 -.00021784  00000-0 -15088-3 0  9990,2 50808  53.2156 326.3739 0001882  25.4670 270.1369 15.73245488  3694,6727.765,91.531,350.897,348.36400000000015,0.0
50808.0,STARLINK-3355,PAYLOAD,2022-02-23 06:00:00,15.73203169,0.000199,53.215,324.7254,20.4444,4.1388,0.0001416999999999,0.00019315,0.0,0 STARLINK-3355,1 50808U 22001F   22054.25001157  .00019315  00000-0  14170-3 0  9995,2 50808  53.2150 324.7254 0001990  20.4444   4.1388 15.73203169  8743,6727.886,91.533,351.09,348.412,0.0
50808.0,STARLINK-3355,PAYLOAD,2022-02-23 12:00:00,15.73221648,0.0001795,53.2153,323.4864,22.8713,338.4019,-0.00039119,-0.00055216,0.0,0 STARLINK-3355,1 50808U 22001F   22054.50001157 -.00055216  00000-0 -39119-3 0  9995,2 50808  53.2153 323.4864 0001795  22.8713 338.4019 15.73221648  8776,6727.833000000001,91.532,350.906,348.491,0.0
50808.0,STARLINK-3355,PAYLOAD,2022-02-23 14:00:01,15.73205079,0.0001766,53.2152,323.0737,24.3835,89.1294,-0.00026631,-0.00037838,0.0,0 STARLINK-3355,1 50808U 22001F   22054.58334491 -.00037838  00000-0 -26631-3 0  9998,2 50808  53.2152 323.0737 0001766  24.3835  89.1294 15.73205079  3714,6727.880999999999,91.533,350.934,348.55800000000005,0.0
50808.0,STARLINK-3355,PAYLOAD,2022-02-23 22:00:00,15.73162129,0.0001991,53.2156,321.4252,30.5182,171.8935,1.9539e-05,2.118e-05,0.0,0 STARLINK-3355,1 50808U 22001F   22054.91667824  .00002118  00000-0  19539-4 0  9995,2 50808  53.2156 321.4252 0001991  30.5182 171.8935 15.73162129  3715,6728.003000000002,91.535,351.208,348.529,0.0
50808.0,STARLINK-3355,PAYLOAD,2022-02-24 06:00:00,15.73176424,0.0002122,53.2154,319.7765,26.2593,265.0551,0.00041455,0.00057905,0.0,0 STARLINK-3355,1 50808U 22001F   22055.25001157  .00057905  00000-0  41455-3 0  9999,2 50808  53.2154 319.7765 0002122  26.2593 265.0551 15.73176424  8894,6727.962,91.535,351.255,348.4,0.0
50808.0,STARLINK-3355,PAYLOAD,2022-02-24 14:00:01,15.73204521,0.0001933,53.2174,318.1228,30.9657,349.1401,-2.3916e-06,-9.57e-06,0.0,0 STARLINK-3355,1 50808U 22001F   22055.58334491 -.00000957  00000-0 -23916-5 0  9996,2 50808  53.2174 318.1228 0001933  30.9657 349.1401 15.73204521  3696,6727.882,91.533,351.048,348.44699999999995,0.0
50808.0,STARLINK-3355,PAYLOAD,2022-02-24 22:00:00,15.7322883,0.0002134,53.216,316.4759,33.7895,75.4502,-3.4759000000000004e-05,-5.503e-05,0.0,0 STARLINK-3355,1 50808U 22001F   22055.91667824 -.00005503  00000-0 -34759-4 0  9990,2 50808  53.2160 316.4759 0002134  33.7895  75.4502 15.73228830  3689,6727.813,91.532,351.11400000000015,348.242,0.0
50808.0,STARLINK-3355,PAYLOAD,2022-02-25 06:00:00,15.73223945,0.0002174,53.2147,314.8278,31.0147,167.1484,-0.00042825,-0.00060362,0.0,0 STARLINK-3355,1 50808U 22001F   22056.25001157 -.00060362  00000-0 -42825-3 0  9995,2 50808  53.2147 314.8278 0002174  31.0147 167.1484 15.73223945  9054,6727.8269999999975,91.532,351.155,348.22900000000016,0.0
50808.0,STARLINK-3355,PAYLOAD,2022-02-25 14:00:01,15.7315034,0.0001877,53.2149,313.1762,32.5262,254.5746,0.00062561,0.00087918,0.0,0 STARLINK-3355,1 50808U 22001F   22056.58334491  .00087918  00000-0  62561-3 0  9994,2 50808  53.2149 313.1762 0001877  32.5262 254.5746 15.73150340  3693,6728.0369999999975,91.536,351.165,348.639,0.0
50808.0,STARLINK-3355,PAYLOAD,2022-02-25 22:00:00,15.73218908,0.0002029,53.2153,311.5281,31.5746,344.4265,1.02e-05,8.11e-06,0.0,0 STARLINK-3355,1 50808U 22001F   22056.91667824  .00000811  00000-0  10200-4 0  9991,2 50808  53.2153 311.5281 0002029  31.5746 344.4265 15.73218908  9160,6727.840999999999,91.532,351.071,348.341,0.0
50808.0,STARLINK-3355,PAYLOAD,2022-02-26 14:00:01,15.7317328,0.0001778,53.215,308.2276,25.7322,168.1782,0.00052127,0.00073093,0.0,0 STARLINK-3355,1 50808U 22001F   22057.58334491  .00073093  00000-0  52127-3 0  9991,2 50808  53.2150 308.2276 0001778  25.7322 168.1782 15.73173280  3699,6727.971,91.535,351.033,348.64,0.0
50808.0,STARLINK-3355,PAYLOAD,2022-02-26 20:00:01,15.73255054,0.0001847,53.2151,306.9916,24.0433,146.6152,-0.00077781,-0.00108646,0.0,0 STARLINK-3355,1 50808U 22001F   22057.83335648 -.00108646  00000-0 -77781-3 0  9992,2 50808  53.2151 306.9916 0001847  24.0433 146.6152 15.73255054  9304,6727.738,91.53,350.846,348.361,0.0
50808.0,STARLINK-3355,PAYLOAD,2022-02-26 22:00:00,15.732341,0.0001913,53.2148,306.5799,22.1723,260.6661,-0.000695,-0.0009719,0.0,0 STARLINK-3355,1 50808U 22001F   22057.91667824 -.00097190  00000-0 -69500-3 0  9996,2 50808  53.2148 306.5799 0001913  22.1723 260.6661 15.73234100  3709,6727.7980000000025,91.531,350.95,348.376,0.0
50808.0,STARLINK-3355,PAYLOAD,2022-02-27 06:00:00,15.73176036,0.0001955,53.2143,304.9307,16.9591,354.7958,0.00014246,0.00019399,0.0,0 STARLINK-3355,1 50808U 22001F   22058.25001157  .00019399  00000-0  14246-3 0  9995,2 50808  53.2143 304.9307 0001955  16.9591 354.7958 15.73176036  9377,6727.9630000000025,91.535,351.144,348.51300000000015,0.0
50808.0,STARLINK-3355,PAYLOAD,2022-02-27 14:00:01,15.73175649,0.0001673,53.2144,303.2793,21.3868,79.2884,0.00056177,0.00078883,0.0,0 STARLINK-3355,1 50808U 22001F   22058.58334491  .00078883  00000-0  56177-3 0  9993,2 50808  53.2144 303.2793 0001673  21.3868  79.2884 15.73175649  3698,6727.965,91.535,350.955,348.704,0.0
50808.0,STARLINK-3355,PAYLOAD,2022-02-27 22:00:00,15.73262702,0.0001943,53.2146,301.6316,23.5328,166.0705,-0.00062321,-0.00087422,0.0,0 STARLINK-3355,1 50808U 22001F   22058.91667824 -.00087422  00000-0 -62321-3 0  9998,2 50808  53.2146 301.6316 0001943  23.5328 166.0705 15.73262702  9474,6727.715999999999,91.53,350.889,348.274,0.0
